{
  "type": "FeatureCollection",
  "features": [
    {
      "type": "Feature",
      "properties": {
        "norad_id": 66528,
        "name": "STARLINK-35928",
        "group": "last-30-days",
        "lat": 26.625464851534396,
        "lon": -147.63485733488392,
        "alt_km": 411.68006218367464,
        "timestamp": "2025-12-10T20:49:51.344669+00:00",
        "meta_object_name": "STARLINK-35928",
        "meta_object_id": "2025-265N",
        "meta_epoch": "2025-12-10T14:00:03.000384",
        "meta_mean_motion": 15.50618225,
        "meta_eccentricity": 0.00014715,
        "meta_inclination": 43.0001,
        "meta_ra_of_asc_node": 66.5765,
        "meta_arg_of_pericenter": 279.6896,
        "meta_mean_anomaly": 68.6576,
        "meta_ephemeris_type": 0,
        "meta_classification_type": "U",
        "meta_norad_cat_id": 66528,
        "meta_element_set_no": 999,
        "meta_rev_at_epoch": 464,
        "meta_bstar": -0.0019390963,
        "meta_mean_motion_dot": -0.00112635,
        "meta_mean_motion_ddot": 0,
        "tle_line1": "1 66528U 25265N   25344.58336806 -.00112635  00000+0 -19391-2 0  9998",
        "tle_line2": "2 66528  43.0001  66.5765 0001471 279.6896  68.6576 15.50618225  4649"
      },
      "geometry": {
        "type": "Point",
        "coordinates": [
          -147.63485733488392,
          26.625464851534396
        ]
      }
    },
    {
      "type": "Feature",
      "properties": {
        "norad_id": 66529,
        "name": "STARLINK-35933",
        "group": "last-30-days",
        "lat": 25.517087290676397,
        "lon": -145.90814399004182,
        "alt_km": 412.2191090887345,
        "timestamp": "2025-12-10T20:49:51.344679+00:00",
        "meta_object_name": "STARLINK-35933",
        "meta_object_id": "2025-265P",
        "meta_epoch": "2025-12-10T14:00:03.000384",
        "meta_mean_motion": 15.50774479,
        "meta_eccentricity": 0.0001697,
        "meta_inclination": 42.9997,
        "meta_ra_of_asc_node": 66.5713,
        "meta_arg_of_pericenter": 274.3098,
        "meta_mean_anomaly": 75.9255,
        "meta_ephemeris_type": 0,
        "meta_classification_type": "U",
        "meta_norad_cat_id": 66529,
        "meta_element_set_no": 999,
        "meta_rev_at_epoch": 464,
        "meta_bstar": -0.0099249379,
        "meta_mean_motion_dot": -0.00547463,
        "meta_mean_motion_ddot": 0,
        "tle_line1": "1 66529U 25265P   25344.58336806 -.00547463  00000+0 -99249-2 0  9990",
        "tle_line2": "2 66529  42.9997  66.5713 0001697 274.3098  75.9255 15.50774479  4640"
      },
      "geometry": {
        "type": "Point",
        "coordinates": [
          -145.90814399004182,
          25.517087290676397
        ]
      }
    },
    {
      "type": "Feature",
      "properties": {
        "norad_id": 66530,
        "name": "STARLINK-35961",
        "group": "last-30-days",
        "lat": 24.376165716658946,
        "lon": -144.19346982313684,
        "alt_km": 411.9647398390598,
        "timestamp": "2025-12-10T20:49:51.344692+00:00",
        "meta_object_name": "STARLINK-35961",
        "meta_object_id": "2025-265Q",
        "meta_epoch": "2025-12-10T14:00:03.000384",
        "meta_mean_motion": 15.50627851,
        "meta_eccentricity": 0.0001556,
        "meta_inclination": 43,
        "meta_ra_of_asc_node": 66.5665,
        "meta_arg_of_pericenter": 273.2847,
        "meta_mean_anomaly": 78.8993,
        "meta_ephemeris_type": 0,
        "meta_classification_type": "U",
        "meta_norad_cat_id": 66530,
        "meta_element_set_no": 999,
        "meta_rev_at_epoch": 464,
        "meta_bstar": -0.0022583881,
        "meta_mean_motion_dot": -0.00130869,
        "meta_mean_motion_ddot": 0,
        "tle_line1": "1 66530U 25265Q   25344.58336806 -.00130869  00000+0 -22584-2 0  9998",
        "tle_line2": "2 66530  43.0000  66.5665 0001556 273.2847  78.8993 15.50627851  4641"
      },
      "geometry": {
        "type": "Point",
        "coordinates": [
          -144.19346982313684,
          24.376165716658946
        ]
      }
    },
    {
      "type": "Feature",
      "properties": {
        "norad_id": 66531,
        "name": "STARLINK-35960",
        "group": "last-30-days",
        "lat": 23.211401398849386,
        "lon": -142.50256219416713,
        "alt_km": 412.01356445662805,
        "timestamp": "2025-12-10T20:49:51.344703+00:00",
        "meta_object_name": "STARLINK-35960",
        "meta_object_id": "2025-265R",
        "meta_epoch": "2025-12-10T14:00:03.000384",
        "meta_mean_motion": 15.50665708,
        "meta_eccentricity": 0.00014997,
        "meta_inclination": 43.0001,
        "meta_ra_of_asc_node": 66.5624,
        "meta_arg_of_pericenter": 265.9872,
        "meta_mean_anomaly": 88.1195,
        "meta_ephemeris_type": 0,
        "meta_classification_type": "U",
        "meta_norad_cat_id": 66531,
        "meta_element_set_no": 999,
        "meta_rev_at_epoch": 464,
        "meta_bstar": -0.0035727521,
        "meta_mean_motion_dot": -0.00205176,
        "meta_mean_motion_ddot": 0,
        "tle_line1": "1 66531U 25265R   25344.58336806 -.00205176  00000+0 -35728-2 0  9997",
        "tle_line2": "2 66531  43.0001  66.5624 0001499 265.9872  88.1195 15.50665708  4641"
      },
      "geometry": {
        "type": "Point",
        "coordinates": [
          -142.50256219416713,
          23.211401398849386
        ]
      }
    },
    {
      "type": "Feature",
      "properties": {
        "norad_id": 66532,
        "name": "STARLINK-35914",
        "group": "last-30-days",
        "lat": 22.05350462468059,
        "lon": -140.87568641644015,
        "alt_km": 412.2340037919157,
        "timestamp": "2025-12-10T20:49:51.344714+00:00",
        "meta_object_name": "STARLINK-35914",
        "meta_object_id": "2025-265S",
        "meta_epoch": "2025-12-10T14:00:03.000384",
        "meta_mean_motion": 15.50636643,
        "meta_eccentricity": 0.00015369,
        "meta_inclination": 43.0002,
        "meta_ra_of_asc_node": 66.558,
        "meta_arg_of_pericenter": 269.6807,
        "meta_mean_anomaly": 86.3375,
        "meta_ephemeris_type": 0,
        "meta_classification_type": "U",
        "meta_norad_cat_id": 66532,
        "meta_element_set_no": 999,
        "meta_rev_at_epoch": 464,
        "meta_bstar": -0.0026368334,
        "meta_mean_motion_dot": -0.00152374,
        "meta_mean_motion_ddot": 0,
        "tle_line1": "1 66532U 25265S   25344.58336806 -.00152374  00000+0 -26368-2 0  9999",
        "tle_line2": "2 66532  43.0002  66.5580 0001536 269.6807  86.3375 15.50636643  4641"
      },
      "geometry": {
        "type": "Point",
        "coordinates": [
          -140.87568641644015,
          22.05350462468059
        ]
      }
    },
    {
      "type": "Feature",
      "properties": {
        "norad_id": 66533,
        "name": "STARLINK-35707",
        "group": "last-30-days",
        "lat": 20.87016878708596,
        "lon": -139.26432972372112,
        "alt_km": 412.4441191824544,
        "timestamp": "2025-12-10T20:49:51.344724+00:00",
        "meta_object_name": "STARLINK-35707",
        "meta_object_id": "2025-265T",
        "meta_epoch": "2025-12-10T14:00:03.000384",
        "meta_mean_motion": 15.50620375,
        "meta_eccentricity": 0.00015282,
        "meta_inclination": 42.9999,
        "meta_ra_of_asc_node": 66.5523,
        "meta_arg_of_pericenter": 274.304,
        "meta_mean_anomaly": 83.632,
        "meta_ephemeris_type": 0,
        "meta_classification_type": "U",
        "meta_norad_cat_id": 66533,
        "meta_element_set_no": 999,
        "meta_rev_at_epoch": 464,
        "meta_bstar": -0.0019898042,
        "meta_mean_motion_dot": -0.00115539,
        "meta_mean_motion_ddot": 0,
        "tle_line1": "1 66533U 25265T   25344.58336806 -.00115539  00000+0 -19898-2 0  9992",
        "tle_line2": "2 66533  42.9999  66.5523 0001528 274.3040  83.6320 15.50620375  4640"
      },
      "geometry": {
        "type": "Point",
        "coordinates": [
          -139.26432972372112,
          20.87016878708596
        ]
      }
    },
    {
      "type": "Feature",
      "properties": {
        "norad_id": 66534,
        "name": "STARLINK-35976",
        "group": "last-30-days",
        "lat": 19.66929108130006,
        "lon": -137.67346518303125,
        "alt_km": 412.58279586418485,
        "timestamp": "2025-12-10T20:49:51.344734+00:00",
        "meta_object_name": "STARLINK-35976",
        "meta_object_id": "2025-265U",
        "meta_epoch": "2025-12-10T14:00:03.000384",
        "meta_mean_motion": 15.50626588,
        "meta_eccentricity": 0.00015718,
        "meta_inclination": 43.0001,
        "meta_ra_of_asc_node": 66.5477,
        "meta_arg_of_pericenter": 271.1524,
        "meta_mean_anomaly": 88.7003,
        "meta_ephemeris_type": 0,
        "meta_classification_type": "U",
        "meta_norad_cat_id": 66534,
        "meta_element_set_no": 999,
        "meta_rev_at_epoch": 464,
        "meta_bstar": -0.0022508326,
        "meta_mean_motion_dot": -0.00130434,
        "meta_mean_motion_ddot": 0,
        "tle_line1": "1 66534U 25265U   25344.58336806 -.00130434  00000+0 -22508-2 0  9996",
        "tle_line2": "2 66534  43.0001  66.5477 0001571 271.1524  88.7003 15.50626588  4641"
      },
      "geometry": {
        "type": "Point",
        "coordinates": [
          -137.67346518303125,
          19.66929108130006
        ]
      }
    }
  ]
}